NORAD_CAT_ID,OBJECT_NAME,OBJECT_TYPE,EPOCH,MEAN_MOTION,ECCENTRICITY,INCLINATION,RA_OF_ASC_NODE,ARG_OF_PERICENTER,MEAN_ANOMALY,BSTAR,MEAN_MOTION_DOT,MEAN_MOTION_DDOT,TLE_LINE0,TLE_LINE1,TLE_LINE2,SEMIMAJOR_AXIS,PERIOD,APOGEE,PERIGEE,DECAYED
51859.0,STARLINK-3560,PAYLOAD,2022-09-06 14:00:01,15.08818132,0.0001496999999999,53.2166,355.7302,51.5247,45.6818,-0.00017054,-2.999e-05,0.0,0 STARLINK-3560,1 51859U 22022H   22249.58334491 -.00002999  00000-0 -17054-3 0  9993,2 51859  53.2166 355.7302 0001497  51.5247  45.6818 15.08818132  1306,6917.946999999999,95.439,540.8480000000002,538.7769999999998,0.0
51859.0,STARLINK-3560,PAYLOAD,2022-09-06 22:00:00,15.08850047,0.0001517,53.2168,354.2334,49.7519,59.0162,-0.0039359,-0.00062402,0.0,0 STARLINK-3560,1 51859U 22022H   22249.91667824 -.00062402  00000-0 -39359-2 0  9995,2 51859  53.2168 354.2334 0001517  49.7519  59.0162 15.08850047  1303,6917.85,95.437,540.764,538.665,0.0
51859.0,STARLINK-3560,PAYLOAD,2022-09-07 14:00:01,15.08818158,0.0001629,53.2173,351.2412,52.5669,79.3465,8.0605e-05,9.94e-06,0.0,0 STARLINK-3560,1 51859U 22022H   22250.58334491  .00000994  00000-0  80605-4 0  9999,2 51859  53.2173 351.2412 0001629  52.5669  79.3465 15.08818158 30057,6917.946999999999,95.439,540.939,538.685,0.0
51859.0,STARLINK-3560,PAYLOAD,2022-09-07 22:00:00,15.08842595,0.0001584,53.2173,349.7444,51.3569,92.1214,-0.0013712,-0.00022046,0.0,0 STARLINK-3560,1 51859U 22022H   22250.91667824 -.00022046  00000-0 -13712-2 0  9992,2 51859  53.2173 349.7444 0001584  51.3569  92.1214 15.08842595  1303,6917.871999999999,95.437,540.8330000000002,538.6419999999998,0.0
51859.0,STARLINK-3560,PAYLOAD,2022-09-08 06:00:00,15.08831386,0.0001495,53.2178,348.2469,58.6181,96.4522,0.0021430999999999,0.00033976,0.0,0 STARLINK-3560,1 51859U 22022H   22251.25001157  .00033976  00000-0  21431-2 0  9990,2 51859  53.2178 348.2469 0001495  58.6181  96.4522 15.08831386 30150,6917.906999999997,95.438,540.806,538.737,0.0
51859.0,STARLINK-3560,PAYLOAD,2022-09-08 14:00:01,15.08846274,0.0001666999999999,53.2177,346.7524,51.6059,115.0651,0.00033288,5.015e-05,0.0,0 STARLINK-3560,1 51859U 22022H   22251.58334491  .00005015  00000-0  33288-3 0  9993,2 51859  53.2177 346.7524 0001667  51.6059 115.0651 15.08846274  1300,6917.861,95.437,540.879,538.573,0.0
51859.0,STARLINK-3560,PAYLOAD,2022-09-08 22:00:00,15.08879592,0.0001633,53.2176,345.2553,52.8225,125.456,-0.0038472,-0.00061064,0.0,0 STARLINK-3560,1 51859U 22022H   22251.91667824 -.00061064  00000-0 -38472-2 0  9996,2 51859  53.2176 345.2553 0001633  52.8225 125.4560 15.08879592  1309,6917.759,95.435,540.754,538.495,0.0
51859.0,STARLINK-3560,PAYLOAD,2022-09-09 00:00:02,15.08855455,0.0001597,53.2179,344.8807,54.7394,216.5143,-0.0013873,-0.00022308,0.0,0 STARLINK-3560,1 51859U 22022H   22252.00002315 -.00022308  00000-0 -13873-2 0  9991,2 51859  53.2179 344.8807 0001597  54.7394 216.5143 15.08855455 30264,6917.833000000001,95.437,540.803,538.5930000000002,0.0
51859.0,STARLINK-3560,PAYLOAD,2022-09-09 14:00:01,15.08811109,0.0001778,53.2178,342.2658,49.1063,152.3589,0.0029145,0.00046365,0.0,0 STARLINK-3560,1 51859U 22022H   22252.58334491  .00046365  00000-0  29145-2 0  9993,2 51859  53.2178 342.2658 0001778  49.1063 152.3589 15.08811109  1303,6917.969,95.439,541.064,538.604,0.0
51859.0,STARLINK-3560,PAYLOAD,2022-09-09 22:00:00,15.08864073,0.0001771999999999,53.2174,340.7698,47.6381,165.4024,-0.0026221,-0.00041805,0.0,0 STARLINK-3560,1 51859U 22022H   22252.91667824 -.00041805  00000-0 -26221-2 0  9997,2 51859  53.2174 340.7698 0001772  47.6381 165.4024 15.08864073  1303,6917.807,95.436,540.898,538.446,0.0
51859.0,STARLINK-3560,PAYLOAD,2022-09-10 06:00:02,15.08863105,0.0001537,53.2175,339.2696,56.2895,168.4167,-0.00087906,-0.0001426,0.0,0 STARLINK-3560,1 51859U 22022H   22253.25002315 -.00014260  00000-0 -87906-3 0  9996,2 51859  53.2175 339.2696 0001537  56.2895 168.4167 15.08863105 30454,6917.81,95.436,540.738,538.611,0.0
51859.0,STARLINK-3560,PAYLOAD,2022-09-10 14:00:01,15.08824555,0.0001696,53.2173,337.7757,47.0016,189.2653,0.0013606,0.00021423,0.0,0 STARLINK-3560,1 51859U 22022H   22253.58334491  .00021423  00000-0  13606-2 0  9997,2 51859  53.2173 337.7757 0001696  47.0016 189.2653 15.08824555  1301,6917.928000000001,95.439,540.966,538.619,0.0
51859.0,STARLINK-3560,PAYLOAD,2022-09-10 22:00:00,15.08853769,0.0001593,53.2171,336.2778,49.3918,198.4523,-0.0041387,-0.00065581,0.0,0 STARLINK-3560,1 51859U 22022H   22253.91667824 -.00065581  00000-0 -41387-2 0  9995,2 51859  53.2171 336.2778 0001593  49.3918 198.4523 15.08853769  1305,6917.8380000000025,95.437,540.805,538.601,0.0
51859.0,STARLINK-3560,PAYLOAD,2022-09-11 14:00:01,15.08824322,0.0001757,53.2166,333.2862,49.393,221.636,0.0020561,0.00032573,0.0,0 STARLINK-3560,1 51859U 22022H   22254.58334491  .00032573  00000-0  20561-2 0  9994,2 51859  53.2166 333.2862 0001757  49.3930 221.6360 15.08824322 30657,6917.928000000001,95.439,541.009,538.578,0.0
51859.0,STARLINK-3560,PAYLOAD,2022-09-11 22:00:00,15.08869838,0.0001601,53.2162,331.7885,49.8223,232.7929,-0.0039528,-0.00062701,0.0,0 STARLINK-3560,1 51859U 22022H   22254.91667824 -.00062701  00000-0 -39528-2 0  9991,2 51859  53.2162 331.7885 0001601  49.8223 232.7929 15.08869838  1304,6917.7890000000025,95.436,540.762,538.547,0.0
51859.0,STARLINK-3560,PAYLOAD,2022-09-12 06:00:00,15.08837014,0.0001537,53.2161,330.2917,54.1801,240.0371,0.00088705,0.00013856,0.0,0 STARLINK-3560,1 51859U 22022H   22255.25001157  .00013856  00000-0  88705-3 0  9997,2 51859  53.2161 330.2917 0001537  54.1801 240.0371 15.08837014 30757,6917.89,95.438,540.818,538.691,0.0
51859.0,STARLINK-3560,PAYLOAD,2022-09-12 14:00:01,15.08838915,0.000176,53.216,328.7971,47.5782,258.241,0.00044978,6.877e-05,0.0,0 STARLINK-3560,1 51859U 22022H   22255.58334491  .00006877  00000-0  44978-3 0  9992,2 51859  53.2160 328.7971 0001760  47.5782 258.2410 15.08838915  1305,6917.884,95.438,540.966,538.531,0.0
51859.0,STARLINK-3560,PAYLOAD,2022-09-12 22:00:00,15.0884217,0.0001709,53.2157,327.2992,50.162,267.2636,-0.00071836,-0.00011703,0.0,0 STARLINK-3560,1 51859U 22022H   22255.91667824 -.00011703  00000-0 -71836-3 0  9997,2 51859  53.2157 327.2992 0001709  50.1620 267.2636 15.08842170  1300,6917.874,95.437,540.9209999999998,538.556,0.0
51859.0,STARLINK-3560,PAYLOAD,2022-09-13 14:00:01,15.0883665,0.0001724,53.2175,324.3116,40.6738,299.8945,4.238100000000001e-05,3.86e-06,0.0,0 STARLINK-3560,1 51859U 22022H   22256.58334491  .00000386  00000-0  42381-4 0  9999,2 51859  53.2175 324.3116 0001724  40.6738 299.8945 15.08836650  1307,6917.891,95.438,540.948,538.563,0.0
51859.0,STARLINK-3560,PAYLOAD,2022-09-13 22:00:00,15.08840809,0.0001543,53.216,322.8101,41.1152,311.0532,-0.00038856,-6.467e-05,0.0,0 STARLINK-3560,1 51859U 22022H   22256.91667824 -.00006467  00000-0 -38856-3 0  9994,2 51859  53.2160 322.8101 0001543  41.1152 311.0532 15.08840809  1303,6917.878000000002,95.438,540.81,538.675,0.0
51859.0,STARLINK-3560,PAYLOAD,2022-09-14 14:00:01,15.08807652,0.0001818,53.2159,319.8182,42.24800000000001,333.1102,0.0030323,0.00048259,0.0,0 STARLINK-3560,1 51859U 22022H   22257.58334491  .00048259  00000-0  30323-2 0  9992,2 51859  53.2159 319.8182 0001818  42.2480 333.1102 15.08807652 31116,6917.979,95.44,541.102,538.587,0.0
51859.0,STARLINK-3560,PAYLOAD,2022-09-14 22:00:00,15.08847492,0.0001657,53.216,318.3201,43.2468,343.6899,-0.0027358,-0.00043574,0.0,0 STARLINK-3560,1 51859U 22022H   22257.91667824 -.00043574  00000-0 -27358-2 0  9999,2 51859  53.2160 318.3201 0001657  43.2468 343.6899 15.08847492  1305,6917.857,95.437,540.869,538.576,0.0
51859.0,STARLINK-3560,PAYLOAD,2022-09-15 06:00:00,15.08837701,0.0001629,53.2162,316.8237,44.8823,353.6405,-0.00019659,-3.415e-05,0.0,0 STARLINK-3560,1 51859U 22022H   22258.25001157 -.00003415  00000-0 -19659-3 0  9994,2 51859  53.2162 316.8237 0001629  44.8823 353.6405 15.08837701 31219,6917.887,95.438,540.879,538.625,0.0
51859.0,STARLINK-3560,PAYLOAD,2022-09-15 14:00:01,15.08813736,0.0001823,53.2162,315.3287,39.6068,10.5118,0.003445,0.00054927,0.0,0 STARLINK-3560,1 51859U 22022H   22258.58334491  .00054927  00000-0  34450-2 0  9997,2 51859  53.2162 315.3287 0001823  39.6068  10.5118 15.08813736  1306,6917.9609999999975,95.439,541.087,538.565,0.0
51859.0,STARLINK-3560,PAYLOAD,2022-09-15 15:22:09,15.08839438,0.0001652,53.2172,315.071,45.2835,314.8292,2.6589e-05,1.35e-06,0.0,0 STARLINK-3560,1 51859U 22022H   22258.64038412  .00000135  00000-0  26589-4 0  9996,2 51859  53.2172 315.0710 0001652  45.2835 314.8292 15.08839438 31279,6917.882,95.438,540.89,538.604,0.0
51859.0,STARLINK-3560,PAYLOAD,2022-09-16 04:05:13,15.08843047,0.0001671,53.2172,312.6924,43.4051,316.7072,0.00014498,2.02e-05,0.0,0 STARLINK-3560,1 51859U 22022H   22259.17030009  .00002020  00000-0  14498-3 0  9999,2 51859  53.2172 312.6924 0001671  43.4051 316.7072 15.08843047 31357,6917.871,95.437,540.8919999999998,538.58,0.0
51859.0,STARLINK-3560,PAYLOAD,2022-09-16 12:02:10,15.08835427,0.0001747,53.2164,311.2057,43.257,316.8559,-1.9453e-05,-5.98e-06,0.0,0 STARLINK-3560,1 51859U 22022H   22259.50150591 -.00000598  00000-0 -19453-4 0  9992,2 51859  53.2164 311.2057 0001747  43.2570 316.8559 15.08835427 31408,6917.894,95.438,540.9680000000002,538.5509999999998,0.0
51859.0,STARLINK-3560,PAYLOAD,2022-09-16 15:12:56,15.08835502,0.0001669,53.2162,310.6106,41.6408,318.4711,-8.2217e-06,-4.19e-06,0.0,0 STARLINK-3560,1 51859U 22022H   22259.63398391 -.00000419  00000-0 -82217-5 0  9999,2 51859  53.2162 310.6106 0001669  41.6408 318.4711 15.08835502 31423,6917.894,95.438,540.914,538.605,0.0
51859.0,STARLINK-3560,PAYLOAD,2022-09-17 10:17:35,15.08824974,0.0001708,53.2169,307.0424,46.6318,313.4816,7.0253e-05,8.3e-06,0.0,0 STARLINK-3560,1 51859U 22022H   22260.42887855  .00000830  00000-0  70253-4 0  9997,2 51859  53.2169 307.0424 0001708  46.6318 313.4816 15.08824974 31547,6917.926,95.439,540.9730000000002,538.61,0.0
